STARLINK-4022           
1 52629U 22052AH  26073.74249233  .00001421  00000+0  10737-3 0  9995
2 52629  53.2174 246.4013 0001403  91.0020 269.1133 15.08836431211758
STARLINK-3989           
1 52630U 22052AJ  26073.75720717  .00000877  00000+0  73162-4 0  9995
2 52630  53.2156 246.3724 0001225  86.7566 273.3566 15.08842663211757
STARLINK-3794           
1 52631U 22052AK  26073.74343875  .00000171  00000+0  28817-4 0  9995
2 52631  53.2168 246.4455 0001458  82.9709 277.1449 15.08846480211762
STARLINK-3995           
1 52632U 22052AL  26073.88601206 -.00000502  00000+0 -13474-4 0  9999
2 52632  53.2187 245.7909 0001431 117.0966 243.0173 15.08828589211784
STARLINK-3994           
1 52633U 22052AM  26073.86392964  .00003814  00000+0  25755-3 0  9997
2 52633  53.2158 245.8968 0001102  79.6686 280.4431 15.08843089211780
STARLINK-3974           
1 52634U 22052AN  26073.87864963  .00000672  00000+0  60311-4 0  9999
2 52634  53.2146 245.8567 0001106  88.1087 272.0032 15.08843437211777
STARLINK-3978           
1 52635U 22052AP  26073.71397300  .00001310  00000+0  10038-3 0  9999
2 52635  53.2156 236.5682 0001240  90.2629 269.8506 15.08843831211890
STARLINK-3967           
1 52636U 22052AQ  26073.73882178  .00000397  00000+0  43041-4 0  9999
2 52636  53.2179 246.4566 0001253 101.9028 258.2105 15.08834560211755
STARLINK-3961           
1 52637U 22052AR  26073.71029631 -.00001964  00000+0 -10535-3 0  9999
2 52637  53.2152 236.5818 0001030  82.4211 277.6899 15.08829970212695
STARLINK-3941           
1 52638U 22052AS  26073.80136989  .00000760  00000+0  65840-4 0  9996
2 52638  53.2156 246.1761 0001291 109.1324 250.9809 15.08841307212575
STARLINK-3968           
1 52639U 22052AT  26073.83173184  .00000552  00000+0  52752-4 0  9995
2 52639  53.2165 236.0372 0001259  93.4019 266.7117 15.08841350212713
STARLINK-3977           
1 52640U 22052AU  26073.85013543  .00000149  00000+0  27486-4 0  9999
2 52640  53.2154 235.9853 0001496  97.0884 263.0278 15.08840199211906
STARLINK-3991           
1 52641U 22052AV  26073.84742659 -.00000409  00000+0 -76129-5 0  9996
2 52641  53.2168 236.1698 0001175  99.2372 260.8753 15.08838709211910
STARLINK-3971           
1 52642U 22052AW  26073.70661646 -.00000294  00000+0 -41690-6 0  9996
2 52642  53.2152 236.5991 0001117  97.8097 262.3022 15.08837317211884
STARLINK-3963           
1 52643U 22052AX  26073.81429069  .00001466  00000+0  11013-3 0  9993
2 52643  53.2169 236.0866 0001327  78.7762 281.3380 15.08848483211906
STARLINK-3985           
1 52644U 22052AY  26073.83542765  .00006294  00000+0  41333-3 0  9997
2 52644  53.2168 236.0218 0001154  90.3998 269.7127 15.08825716211909
