[{"OBJECT_NAME":"STARLINK-4022","OBJECT_ID":"2022-052AH","EPOCH":"2026-03-14T17:49:11.337312","MEAN_MOTION":15.08836431,"ECCENTRICITY":0.00014033,"INCLINATION":53.2174,"RA_OF_ASC_NODE":246.4013,"ARG_OF_PERICENTER":91.002,"MEAN_ANOMALY":269.1133,"EPHEMERIS_TYPE":0,"CLASSIFICATION_TYPE":"U","NORAD_CAT_ID":52629,"ELEMENT_SET_NO":999,"REV_AT_EPOCH":21175,"BSTAR":0.00010736825,"MEAN_MOTION_DOT":1.421e-5,"MEAN_MOTION_DDOT":0},{"OBJECT_NAME":"STARLINK-3989","OBJECT_ID":"2022-052AJ","EPOCH":"2026-03-14T18:10:22.699488","MEAN_MOTION":15.08842663,"ECCENTRICITY":0.00012257,"INCLINATION":53.2156,"RA_OF_ASC_NODE":246.3724,"ARG_OF_PERICENTER":86.7566,"MEAN_ANOMALY":273.3566,"EPHEMERIS_TYPE":0,"CLASSIFICATION_TYPE":"U","NORAD_CAT_ID":52630,"ELEMENT_SET_NO":999,"REV_AT_EPOCH":21175,"BSTAR":7.3162236e-5,"MEAN_MOTION_DOT":8.77e-6,"MEAN_MOTION_DDOT":0},{"OBJECT_NAME":"STARLINK-3794","OBJECT_ID":"2022-052AK","EPOCH":"2026-03-14T17:50:33.108000","MEAN_MOTION":15.0884648,"ECCENTRICITY":0.00014585,"INCLINATION":53.2168,"RA_OF_ASC_NODE":246.4455,"ARG_OF_PERICENTER":82.9709,"MEAN_ANOMALY":277.1449,"EPHEMERIS_TYPE":0,"CLASSIFICATION_TYPE":"U","NORAD_CAT_ID":52631,"ELEMENT_SET_NO":999,"REV_AT_EPOCH":21176,"BSTAR":2.8817122e-5,"MEAN_MOTION_DOT":1.71e-6,"MEAN_MOTION_DDOT":0},{"OBJECT_NAME":"STARLINK-3995","OBJECT_ID":"2022-052AL","EPOCH":"2026-03-14T21:15:51.441984","MEAN_MOTION":15.08828589,"ECCENTRICITY":0.00014319,"INCLINATION":53.2187,"RA_OF_ASC_NODE":245.7909,"ARG_OF_PERICENTER":117.0966,"MEAN_ANOMALY":243.0173,"EPHEMERIS_TYPE":0,"CLASSIFICATION_TYPE":"U","NORAD_CAT_ID":52632,"ELEMENT_SET_NO":999,"REV_AT_EPOCH":21178,"BSTAR":-1.3473578e-5,"MEAN_MOTION_DOT":-5.02e-6,"MEAN_MOTION_DDOT":0},{"OBJECT_NAME":"STARLINK-3994","OBJECT_ID":"2022-052AM","EPOCH":"2026-03-14T20:44:03.520896","MEAN_MOTION":15.08843089,"ECCENTRICITY":0.00011023,"INCLINATION":53.2158,"RA_OF_ASC_NODE":245.8968,"ARG_OF_PERICENTER":79.6686,"MEAN_ANOMALY":280.4431,"EPHEMERIS_TYPE":0,"CLASSIFICATION_TYPE":"U","NORAD_CAT_ID":52633,"ELEMENT_SET_NO":999,"REV_AT_EPOCH":21178,"BSTAR":0.00025754892,"MEAN_MOTION_DOT":3.814e-5,"MEAN_MOTION_DDOT":0},{"OBJECT_NAME":"STARLINK-3974","OBJECT_ID":"2022-052AN","EPOCH":"2026-03-14T21:05:15.328032","MEAN_MOTION":15.08843437,"ECCENTRICITY":0.00011064,"INCLINATION":53.2146,"RA_OF_ASC_NODE":245.8567,"ARG_OF_PERICENTER":88.1087,"MEAN_ANOMALY":272.0032,"EPHEMERIS_TYPE":0,"CLASSIFICATION_TYPE":"U","NORAD_CAT_ID":52634,"ELEMENT_SET_NO":999,"REV_AT_EPOCH":21177,"BSTAR":6.0310657e-5,"MEAN_MOTION_DOT":6.72e-6,"MEAN_MOTION_DDOT":0},{"OBJECT_NAME":"STARLINK-3978","OBJECT_ID":"2022-052AP","EPOCH":"2026-03-14T17:08:07.267200","MEAN_MOTION":15.08843831,"ECCENTRICITY":0.00012408,"INCLINATION":53.2156,"RA_OF_ASC_NODE":236.5682,"ARG_OF_PERICENTER":90.2629,"MEAN_ANOMALY":269.8506,"EPHEMERIS_TYPE":0,"CLASSIFICATION_TYPE":"U","NORAD_CAT_ID":52635,"ELEMENT_SET_NO":999,"REV_AT_EPOCH":21189,"BSTAR":0.00010038497,"MEAN_MOTION_DOT":1.31e-5,"MEAN_MOTION_DDOT":0},{"OBJECT_NAME":"STARLINK-3967","OBJECT_ID":"2022-052AQ","EPOCH":"2026-03-14T17:43:54.201792","MEAN_MOTION":15.0883456,"ECCENTRICITY":0.00012534,"INCLINATION":53.2179,"RA_OF_ASC_NODE":246.4566,"ARG_OF_PERICENTER":101.9028,"MEAN_ANOMALY":258.2105,"EPHEMERIS_TYPE":0,"CLASSIFICATION_TYPE":"U","NORAD_CAT_ID":52636,"ELEMENT_SET_NO":999,"REV_AT_EPOCH":21175,"BSTAR":4.3040759e-5,"MEAN_MOTION_DOT":3.97e-6,"MEAN_MOTION_DDOT":0},{"OBJECT_NAME":"STARLINK-3961","OBJECT_ID":"2022-052AR","EPOCH":"2026-03-14T17:02:49.601184","MEAN_MOTION":15.0882997,"ECCENTRICITY":0.00010301,"INCLINATION":53.2152,"RA_OF_ASC_NODE":236.5818,"ARG_OF_PERICENTER":82.4211,"MEAN_ANOMALY":277.6899,"EPHEMERIS_TYPE":0,"CLASSIFICATION_TYPE":"U","NORAD_CAT_ID":52637,"ELEMENT_SET_NO":999,"REV_AT_EPOCH":21269,"BSTAR":-0.00010535456,"MEAN_MOTION_DOT":-1.964e-5,"MEAN_MOTION_DDOT":0},{"OBJECT_NAME":"STARLINK-3941","OBJECT_ID":"2022-052AS","EPOCH":"2026-03-14T19:13:58.358496","MEAN_MOTION":15.08841307,"ECCENTRICITY":0.00012917,"INCLINATION":53.2156,"RA_OF_ASC_NODE":246.1761,"ARG_OF_PERICENTER":109.1324,"MEAN_ANOMALY":250.9809,"EPHEMERIS_TYPE":0,"CLASSIFICATION_TYPE":"U","NORAD_CAT_ID":52638,"ELEMENT_SET_NO":999,"REV_AT_EPOCH":21257,"BSTAR":6.5839869e-5,"MEAN_MOTION_DOT":7.6e-6,"MEAN_MOTION_DDOT":0},{"OBJECT_NAME":"STARLINK-3968","OBJECT_ID":"2022-052AT","EPOCH":"2026-03-14T19:57:41.630976","MEAN_MOTION":15.0884135,"ECCENTRICITY":0.00012591,"INCLINATION":53.2165,"RA_OF_ASC_NODE":236.0372,"ARG_OF_PERICENTER":93.4019,"MEAN_ANOMALY":266.7117,"EPHEMERIS_TYPE":0,"CLASSIFICATION_TYPE":"U","NORAD_CAT_ID":52639,"ELEMENT_SET_NO":999,"REV_AT_EPOCH":21271,"BSTAR":5.2752443e-5,"MEAN_MOTION_DOT":5.52e-6,"MEAN_MOTION_DDOT":0},{"OBJECT_NAME":"STARLINK-3977","OBJECT_ID":"2022-052AU","EPOCH":"2026-03-14T20:24:11.701152","MEAN_MOTION":15.08840199,"ECCENTRICITY":0.00014969,"INCLINATION":53.2154,"RA_OF_ASC_NODE":235.9853,"ARG_OF_PERICENTER":97.0884,"MEAN_ANOMALY":263.0278,"EPHEMERIS_TYPE":0,"CLASSIFICATION_TYPE":"U","NORAD_CAT_ID":52640,"ELEMENT_SET_NO":999,"REV_AT_EPOCH":21190,"BSTAR":2.7485951e-5,"MEAN_MOTION_DOT":1.49e-6,"MEAN_MOTION_DDOT":0},{"OBJECT_NAME":"STARLINK-3991","OBJECT_ID":"2022-052AV","EPOCH":"2026-03-14T20:20:17.657376","MEAN_MOTION":15.08838709,"ECCENTRICITY":0.00011759,"INCLINATION":53.2168,"RA_OF_ASC_NODE":236.1698,"ARG_OF_PERICENTER":99.2372,"MEAN_ANOMALY":260.8753,"EPHEMERIS_TYPE":0,"CLASSIFICATION_TYPE":"U","NORAD_CAT_ID":52641,"ELEMENT_SET_NO":999,"REV_AT_EPOCH":21191,"BSTAR":-7.612928e-6,"MEAN_MOTION_DOT":-4.09e-6,"MEAN_MOTION_DDOT":0},{"OBJECT_NAME":"STARLINK-3971","OBJECT_ID":"2022-052AW","EPOCH":"2026-03-14T16:57:31.662144","MEAN_MOTION":15.08837317,"ECCENTRICITY":0.00011172,"INCLINATION":53.2152,"RA_OF_ASC_NODE":236.5991,"ARG_OF_PERICENTER":97.8097,"MEAN_ANOMALY":262.3022,"EPHEMERIS_TYPE":0,"CLASSIFICATION_TYPE":"U","NORAD_CAT_ID":52642,"ELEMENT_SET_NO":999,"REV_AT_EPOCH":21188,"BSTAR":-4.16899e-7,"MEAN_MOTION_DOT":-2.94e-6,"MEAN_MOTION_DDOT":0},{"OBJECT_NAME":"STARLINK-3963","OBJECT_ID":"2022-052AX","EPOCH":"2026-03-14T19:32:34.715616","MEAN_MOTION":15.08848483,"ECCENTRICITY":0.00013278,"INCLINATION":53.2169,"RA_OF_ASC_NODE":236.0866,"ARG_OF_PERICENTER":78.7762,"MEAN_ANOMALY":281.338,"EPHEMERIS_TYPE":0,"CLASSIFICATION_TYPE":"U","NORAD_CAT_ID":52643,"ELEMENT_SET_NO":999,"REV_AT_EPOCH":21190,"BSTAR":0.00011013362,"MEAN_MOTION_DOT":1.466e-5,"MEAN_MOTION_DDOT":0},{"OBJECT_NAME":"STARLINK-3985","OBJECT_ID":"2022-052AY","EPOCH":"2026-03-14T20:03:00.948960","MEAN_MOTION":15.08825716,"ECCENTRICITY":0.00011547,"INCLINATION":53.2168,"RA_OF_ASC_NODE":236.0218,"ARG_OF_PERICENTER":90.3998,"MEAN_ANOMALY":269.7127,"EPHEMERIS_TYPE":0,"CLASSIFICATION_TYPE":"U","NORAD_CAT_ID":52644,"ELEMENT_SET_NO":999,"REV_AT_EPOCH":21190,"BSTAR":0.00041333073,"MEAN_MOTION_DOT":6.294e-5,"MEAN_MOTION_DDOT":0}]
